CCSDS_OMM_VERS = 2.0
CREATION_DATE  = 
ORIGINATOR     = 

OBJECT_NAME    = SL-4 R/B
OBJECT_ID      = 2014-021B
CENTER_NAME    = EARTH
REF_FRAME      = TEME
TIME_SYSTEM    = UTC
MEAN_ELEMENT_THEORY = SGP/SGP4

EPOCH          = 2026-02-28T14:28:21.967392
MEAN_MOTION    = 15.38824457
ECCENTRICITY   = .009831
INCLINATION    = 51.6074
RA_OF_ASC_NODE = 21.5950
ARG_OF_PERICENTER = 69.8419
MEAN_ANOMALY   = 291.3107

EPHEMERIS_TYPE = 0
CLASSIFICATION_TYPE = U
NORAD_CAT_ID   = 39679
ELEMENT_SET_NO = 999
REV_AT_EPOCH   = 65487
BSTAR          = .34375E-3
MEAN_MOTION_DOT = .15438E-3
MEAN_MOTION_DDOT = 0

CCSDS_OMM_VERS = 2.0
CREATION_DATE  = 
ORIGINATOR     = 

OBJECT_NAME    = ALOS-2
OBJECT_ID      = 2014-029A
CENTER_NAME    = EARTH
REF_FRAME      = TEME
TIME_SYSTEM    = UTC
MEAN_ELEMENT_THEORY = SGP/SGP4

EPOCH          = 2026-02-28T17:22:09.172992
MEAN_MOTION    = 14.79461844
ECCENTRICITY   = .0001496
INCLINATION    = 97.9200
RA_OF_ASC_NODE = 158.4509
ARG_OF_PERICENTER = 97.6468
MEAN_ANOMALY   = 262.4914

EPHEMERIS_TYPE = 0
CLASSIFICATION_TYPE = U
NORAD_CAT_ID   = 39766
ELEMENT_SET_NO = 999
REV_AT_EPOCH   = 63554
BSTAR          = .26533E-3
MEAN_MOTION_DOT = .193E-4
MEAN_MOTION_DDOT = 0

CCSDS_OMM_VERS = 2.0
CREATION_DATE  = 
ORIGINATOR     = 

OBJECT_NAME    = YAOGAN-29
OBJECT_ID      = 2015-069A
CENTER_NAME    = EARTH
REF_FRAME      = TEME
TIME_SYSTEM    = UTC
MEAN_ELEMENT_THEORY = SGP/SGP4

EPOCH          = 2026-02-28T21:18:53.885952
MEAN_MOTION    = 14.82982188
ECCENTRICITY   = .0002374
INCLINATION    = 98.0161
RA_OF_ASC_NODE = 88.2939
ARG_OF_PERICENTER = 50.8552
MEAN_ANOMALY   = 309.2872

EPHEMERIS_TYPE = 0
CLASSIFICATION_TYPE = U
NORAD_CAT_ID   = 41038
ELEMENT_SET_NO = 999
REV_AT_EPOCH   = 55457
BSTAR          = .45532E-4
MEAN_MOTION_DOT = .316E-5
MEAN_MOTION_DDOT = 0

CCSDS_OMM_VERS = 2.0
CREATION_DATE  = 
ORIGINATOR     = 

OBJECT_NAME    = ASTRO-H (HITOMI)
OBJECT_ID      = 2016-012A
CENTER_NAME    = EARTH
REF_FRAME      = TEME
TIME_SYSTEM    = UTC
MEAN_ELEMENT_THEORY = SGP/SGP4

EPOCH          = 2026-02-28T07:31:15.693312
MEAN_MOTION    = 15.09924209
ECCENTRICITY   = .0010009
INCLINATION    = 31.0000
RA_OF_ASC_NODE = 57.0504
ARG_OF_PERICENTER = 238.0581
MEAN_ANOMALY   = 121.9084

EPHEMERIS_TYPE = 0
CLASSIFICATION_TYPE = U
NORAD_CAT_ID   = 41337
ELEMENT_SET_NO = 999
REV_AT_EPOCH   = 55081
BSTAR          = .21906E-3
MEAN_MOTION_DOT = .3738E-4
MEAN_MOTION_DDOT = 0

CCSDS_OMM_VERS = 2.0
CREATION_DATE  = 
ORIGINATOR     = 

OBJECT_NAME    = HXMT (HUIYAN)
OBJECT_ID      = 2017-034A
CENTER_NAME    = EARTH
REF_FRAME      = TEME
TIME_SYSTEM    = UTC
MEAN_ELEMENT_THEORY = SGP/SGP4

EPOCH          = 2026-02-28T11:54:34.163136
MEAN_MOTION    = 15.17323837
ECCENTRICITY   = .0031815
INCLINATION    = 43.0148
RA_OF_ASC_NODE = 67.7790
ARG_OF_PERICENTER = 179.0095
MEAN_ANOMALY   = 181.0821

EPHEMERIS_TYPE = 0
CLASSIFICATION_TYPE = U
NORAD_CAT_ID   = 42758
ELEMENT_SET_NO = 999
REV_AT_EPOCH   = 48114
BSTAR          = .2923E-3
MEAN_MOTION_DOT = .5774E-4
MEAN_MOTION_DDOT = 0

CCSDS_OMM_VERS = 2.0
CREATION_DATE  = 
ORIGINATOR     = 

OBJECT_NAME    = SAOCOM 1A
OBJECT_ID      = 2018-076A
CENTER_NAME    = EARTH
REF_FRAME      = TEME
TIME_SYSTEM    = UTC
MEAN_ELEMENT_THEORY = SGP/SGP4

EPOCH          = 2026-02-28T20:22:44.909760
MEAN_MOTION    = 14.82156939
ECCENTRICITY   = .000129
INCLINATION    = 97.8889
RA_OF_ASC_NODE = 248.1464
ARG_OF_PERICENTER = 80.5178
MEAN_ANOMALY   = 279.6181

EPHEMERIS_TYPE = 0
CLASSIFICATION_TYPE = U
NORAD_CAT_ID   = 43641
ELEMENT_SET_NO = 999
REV_AT_EPOCH   = 40005
BSTAR          = .45648E-4
MEAN_MOTION_DOT = .311E-5
MEAN_MOTION_DDOT = 0

CCSDS_OMM_VERS = 2.0
CREATION_DATE  = 
ORIGINATOR     = 

OBJECT_NAME    = H-2A R/B
OBJECT_ID      = 2018-084L
CENTER_NAME    = EARTH
REF_FRAME      = TEME
TIME_SYSTEM    = UTC
MEAN_ELEMENT_THEORY = SGP/SGP4

EPOCH          = 2026-02-28T12:18:42.747264
MEAN_MOTION    = 15.40886935
ECCENTRICITY   = .0026064
INCLINATION    = 98.8746
RA_OF_ASC_NODE = 274.9427
ARG_OF_PERICENTER = 56.2065
MEAN_ANOMALY   = 304.1653

EPHEMERIS_TYPE = 0
CLASSIFICATION_TYPE = U
NORAD_CAT_ID   = 43682
ELEMENT_SET_NO = 999
REV_AT_EPOCH   = 40436
BSTAR          = .49234E-3
MEAN_MOTION_DOT = .20388E-3
MEAN_MOTION_DDOT = 0

CCSDS_OMM_VERS = 2.0
CREATION_DATE  = 
ORIGINATOR     = 

OBJECT_NAME    = SAOCOM 1B
OBJECT_ID      = 2020-059A
CENTER_NAME    = EARTH
REF_FRAME      = TEME
TIME_SYSTEM    = UTC
MEAN_ELEMENT_THEORY = SGP/SGP4

EPOCH          = 2026-02-28T19:30:30.346272
MEAN_MOTION    = 14.82163143
ECCENTRICITY   = .0001499
INCLINATION    = 97.8887
RA_OF_ASC_NODE = 247.2083
ARG_OF_PERICENTER = 84.2740
MEAN_ANOMALY   = 275.8644

EPHEMERIS_TYPE = 0
CLASSIFICATION_TYPE = U
NORAD_CAT_ID   = 46265
ELEMENT_SET_NO = 999
REV_AT_EPOCH   = 29743
BSTAR          = .15646E-3
MEAN_MOTION_DOT = .1194E-4
MEAN_MOTION_DDOT = 0

CCSDS_OMM_VERS = 2.0
CREATION_DATE  = 
ORIGINATOR     = 

OBJECT_NAME    = CSS (TIANHE)
OBJECT_ID      = 2021-035A
CENTER_NAME    = EARTH
REF_FRAME      = TEME
TIME_SYSTEM    = UTC
MEAN_ELEMENT_THEORY = SGP/SGP4

EPOCH          = 2026-02-28T19:39:56.693088
MEAN_MOTION    = 15.60246270
ECCENTRICITY   = .0006332
INCLINATION    = 41.4653
RA_OF_ASC_NODE = 262.1182
ARG_OF_PERICENTER = 217.0957
MEAN_ANOMALY   = 142.9444

EPHEMERIS_TYPE = 0
CLASSIFICATION_TYPE = U
NORAD_CAT_ID   = 48274
ELEMENT_SET_NO = 999
REV_AT_EPOCH   = 27622
BSTAR          = .2756E-3
MEAN_MOTION_DOT = .22887E-3
MEAN_MOTION_DDOT = 0

CCSDS_OMM_VERS = 2.0
CREATION_DATE  = 
ORIGINATOR     = 

OBJECT_NAME    = COSMOS 2550
OBJECT_ID      = 2021-056A
CENTER_NAME    = EARTH
REF_FRAME      = TEME
TIME_SYSTEM    = UTC
MEAN_ELEMENT_THEORY = SGP/SGP4

EPOCH          = 2026-02-28T18:42:30.199680
MEAN_MOTION    = 15.33829113
ECCENTRICITY   = .0008336
INCLINATION    = 67.1423
RA_OF_ASC_NODE = 67.8834
ARG_OF_PERICENTER = 269.1570
MEAN_ANOMALY   = 90.8629

EPHEMERIS_TYPE = 0
CLASSIFICATION_TYPE = U
NORAD_CAT_ID   = 48865
ELEMENT_SET_NO = 999
REV_AT_EPOCH   = 26209
BSTAR          = .48824E-6
MEAN_MOTION_DOT = -.176E-5
MEAN_MOTION_DDOT = 0

CCSDS_OMM_VERS = 2.0
CREATION_DATE  = 
ORIGINATOR     = 

OBJECT_NAME    = CZ-2C R/B
OBJECT_ID      = 2022-058K
CENTER_NAME    = EARTH
REF_FRAME      = TEME
TIME_SYSTEM    = UTC
MEAN_ELEMENT_THEORY = SGP/SGP4

EPOCH          = 2026-02-28T13:45:56.731392
MEAN_MOTION    = 15.53493345
ECCENTRICITY   = .0042165
INCLINATION    = 50.1903
RA_OF_ASC_NODE = 5.1563
ARG_OF_PERICENTER = 161.9620
MEAN_ANOMALY   = 198.2858

EPHEMERIS_TYPE = 0
CLASSIFICATION_TYPE = U
NORAD_CAT_ID   = 52794
ELEMENT_SET_NO = 999
REV_AT_EPOCH   = 20871
BSTAR          = .41954E-3
MEAN_MOTION_DOT = .27834E-3
MEAN_MOTION_DDOT = 0

CCSDS_OMM_VERS = 2.0
CREATION_DATE  = 
ORIGINATOR     = 

OBJECT_NAME    = CZ-2C R/B
OBJECT_ID      = 2022-132E
CENTER_NAME    = EARTH
REF_FRAME      = TEME
TIME_SYSTEM    = UTC
MEAN_ELEMENT_THEORY = SGP/SGP4

EPOCH          = 2026-02-28T12:39:27.265824
MEAN_MOTION    = 15.60936021
ECCENTRICITY   = .0020632
INCLINATION    = 97.2961
RA_OF_ASC_NODE = 62.5729
ARG_OF_PERICENTER = 120.4212
MEAN_ANOMALY   = 239.9088

EPHEMERIS_TYPE = 0
CLASSIFICATION_TYPE = U
NORAD_CAT_ID   = 54039
ELEMENT_SET_NO = 999
REV_AT_EPOCH   = 18894
BSTAR          = .47072E-3
MEAN_MOTION_DOT = .39824E-3
MEAN_MOTION_DDOT = 0

