SL-4 R/B                
1 39679U 14021B   26059.60303203  .00015438  00000+0  34375-3 0  9996
2 39679  51.6074  21.5950 0098310  69.8419 291.3107 15.38824457654879
ALOS-2                  
1 39766U 14029A   26059.72371728  .00001930  00000+0  26533-3 0  9990
2 39766  97.9200 158.4509 0001496  97.6468 262.4914 14.79461844635541
YAOGAN-29               
1 41038U 15069A   26059.88812368  .00000316  00000+0  45532-4 0  9995
2 41038  98.0161  88.2939 0002374  50.8552 309.2872 14.82982188554571
ASTRO-H (HITOMI)        
1 41337U 16012A   26059.31337608  .00003738  00000+0  21906-3 0  9992
2 41337  31.0000  57.0504 0010009 238.0581 121.9084 15.09924209550817
HXMT (HUIYAN)           
1 42758U 17034A   26059.49622874  .00005774  00000+0  29230-3 0  9996
2 42758  43.0148  67.7790 0031815 179.0095 181.0821 15.17323837481142
SAOCOM 1A               
1 43641U 18076A   26059.84913090  .00000311  00000+0  45648-4 0  9991
2 43641  97.8889 248.1464 0001290  80.5178 279.6181 14.82156939400050
H-2A R/B                
1 43682U 18084L   26059.51299476  .00020388  00000+0  49234-3 0  9994
2 43682  98.8746 274.9427 0026064  56.2065 304.1653 15.40886935404362
SAOCOM 1B               
1 46265U 20059A   26059.81285123  .00001194  00000+0  15646-3 0  9990
2 46265  97.8887 247.2083 0001499  84.2740 275.8644 14.82163143297430
CSS (TIANHE)            
1 48274U 21035A   26059.81940617  .00022887  00000+0  27560-3 0  9993
2 48274  41.4653 262.1182 0006332 217.0957 142.9444 15.60246270276227
COSMOS 2550             
1 48865U 21056A   26059.77951620 -.00000176  00000+0  48824-6 0  9990
2 48865  67.1423  67.8834 0008336 269.1570  90.8629 15.33829113262091
CZ-2C R/B               
1 52794U 22058K   26059.57357328  .00027834  00000+0  41954-3 0  9995
2 52794  50.1903   5.1563 0042165 161.9620 198.2858 15.53493345208711
CZ-2C R/B               
1 54039U 22132E   26059.52739891  .00039824  00000+0  47072-3 0  9995
2 54039  97.2961  62.5729 0020632 120.4212 239.9088 15.60936021188945
